CCSDS_OMM_VERS = 2.0
CREATION_DATE  = 
ORIGINATOR     = 

OBJECT_NAME    = STARLINK-36192
OBJECT_ID      = 2025-293X
CENTER_NAME    = EARTH
REF_FRAME      = TEME
TIME_SYSTEM    = UTC
MEAN_ELEMENT_THEORY = SGP/SGP4

EPOCH          = 2025-12-20T06:00:02.999808
MEAN_MOTION    = 15.92990323
ECCENTRICITY   = .00039202
INCLINATION    = 69.9936
RA_OF_ASC_NODE = 301.9281
ARG_OF_PERICENTER = 272.2172
MEAN_ANOMALY   = 344.5697

EPHEMERIS_TYPE = 0
CLASSIFICATION_TYPE = U
NORAD_CAT_ID   = 67024
ELEMENT_SET_NO = 999
REV_AT_EPOCH   = 143
BSTAR          = -.37315263E-2
MEAN_MOTION_DOT = -.1300994E-1
MEAN_MOTION_DDOT = .49613123E-3

CCSDS_OMM_VERS = 2.0
CREATION_DATE  = 
ORIGINATOR     = 

OBJECT_NAME    = STARLINK-36178
OBJECT_ID      = 2025-293Y
CENTER_NAME    = EARTH
REF_FRAME      = TEME
TIME_SYSTEM    = UTC
MEAN_ELEMENT_THEORY = SGP/SGP4

EPOCH          = 2025-12-20T12:00:02.000160
MEAN_MOTION    = 15.92431662
ECCENTRICITY   = .0003899
INCLINATION    = 69.9929
RA_OF_ASC_NODE = 301.1979
ARG_OF_PERICENTER = 269.3824
MEAN_ANOMALY   = 342.5617

EPHEMERIS_TYPE = 0
CLASSIFICATION_TYPE = U
NORAD_CAT_ID   = 67025
ELEMENT_SET_NO = 999
REV_AT_EPOCH   = 147
BSTAR          = -.41945E-2
MEAN_MOTION_DOT = -.1419241E-1
MEAN_MOTION_DDOT = .57927E-3

CCSDS_OMM_VERS = 2.0
CREATION_DATE  = 
ORIGINATOR     = 

OBJECT_NAME    = STARLINK-36176
OBJECT_ID      = 2025-293Z
CENTER_NAME    = EARTH
REF_FRAME      = TEME
TIME_SYSTEM    = UTC
MEAN_ELEMENT_THEORY = SGP/SGP4

EPOCH          = 2025-12-20T12:00:02.000160
MEAN_MOTION    = 15.92514702
ECCENTRICITY   = .0003897
INCLINATION    = 69.9926
RA_OF_ASC_NODE = 301.1919
ARG_OF_PERICENTER = 270.9863
MEAN_ANOMALY   = 346.0060

EPHEMERIS_TYPE = 0
CLASSIFICATION_TYPE = U
NORAD_CAT_ID   = 67026
ELEMENT_SET_NO = 999
REV_AT_EPOCH   = 147
BSTAR          = -.42036E-2
MEAN_MOTION_DOT = -.142836E-1
MEAN_MOTION_DDOT = .58664E-3

CCSDS_OMM_VERS = 2.0
CREATION_DATE  = 
ORIGINATOR     = 

OBJECT_NAME    = STARLINK-36171
OBJECT_ID      = 2025-293AA
CENTER_NAME    = EARTH
REF_FRAME      = TEME
TIME_SYSTEM    = UTC
MEAN_ELEMENT_THEORY = SGP/SGP4

EPOCH          = 2025-12-20T12:00:02.000160
MEAN_MOTION    = 15.92476213
ECCENTRICITY   = .0003847
INCLINATION    = 69.9925
RA_OF_ASC_NODE = 301.1947
ARG_OF_PERICENTER = 270.0786
MEAN_ANOMALY   = 344.7841

EPHEMERIS_TYPE = 0
CLASSIFICATION_TYPE = U
NORAD_CAT_ID   = 67027
ELEMENT_SET_NO = 999
REV_AT_EPOCH   = 147
BSTAR          = -.42249E-2
MEAN_MOTION_DOT = -.1432667E-1
MEAN_MOTION_DDOT = .58969E-3

CCSDS_OMM_VERS = 2.0
CREATION_DATE  = 
ORIGINATOR     = 

OBJECT_NAME    = STARLINK-36132
OBJECT_ID      = 2025-293AB
CENTER_NAME    = EARTH
REF_FRAME      = TEME
TIME_SYSTEM    = UTC
MEAN_ELEMENT_THEORY = SGP/SGP4

EPOCH          = 2025-12-20T12:00:02.000160
MEAN_MOTION    = 15.92601818
ECCENTRICITY   = .0003985
INCLINATION    = 69.9931
RA_OF_ASC_NODE = 301.1859
ARG_OF_PERICENTER = 270.2122
MEAN_ANOMALY   = 351.8793

EPHEMERIS_TYPE = 0
CLASSIFICATION_TYPE = U
NORAD_CAT_ID   = 67028
ELEMENT_SET_NO = 999
REV_AT_EPOCH   = 147
BSTAR          = -.42179E-2
MEAN_MOTION_DOT = -.1439634E-1
MEAN_MOTION_DDOT = .59574E-3

CCSDS_OMM_VERS = 2.0
CREATION_DATE  = 
ORIGINATOR     = 

OBJECT_NAME    = STARLINK-36190
OBJECT_ID      = 2025-293AC
CENTER_NAME    = EARTH
REF_FRAME      = TEME
TIME_SYSTEM    = UTC
MEAN_ELEMENT_THEORY = SGP/SGP4

EPOCH          = 2025-12-20T12:00:02.000160
MEAN_MOTION    = 15.92556927
ECCENTRICITY   = .0003867
INCLINATION    = 69.9930
RA_OF_ASC_NODE = 301.1895
ARG_OF_PERICENTER = 268.7981
MEAN_ANOMALY   = 350.4634

EPHEMERIS_TYPE = 0
CLASSIFICATION_TYPE = U
NORAD_CAT_ID   = 67029
ELEMENT_SET_NO = 999
REV_AT_EPOCH   = 147
BSTAR          = -.4233E-2
MEAN_MOTION_DOT = -.144133E-1
MEAN_MOTION_DDOT = .59677E-3

CCSDS_OMM_VERS = 2.0
CREATION_DATE  = 
ORIGINATOR     = 

OBJECT_NAME    = STARLINK-36138
OBJECT_ID      = 2025-294A
CENTER_NAME    = EARTH
REF_FRAME      = TEME
TIME_SYSTEM    = UTC
MEAN_ELEMENT_THEORY = SGP/SGP4

EPOCH          = 2025-12-20T12:00:02.000160
MEAN_MOTION    = 15.87811313
ECCENTRICITY   = .0001413
INCLINATION    = 42.9996
RA_OF_ASC_NODE = 134.7531
ARG_OF_PERICENTER = 266.5464
MEAN_ANOMALY   = 309.4701

EPHEMERIS_TYPE = 0
CLASSIFICATION_TYPE = U
NORAD_CAT_ID   = 67030
ELEMENT_SET_NO = 999
REV_AT_EPOCH   = 136
BSTAR          = -.55017E-2
MEAN_MOTION_DOT = -.1346401E-1
MEAN_MOTION_DDOT = 0

CCSDS_OMM_VERS = 2.0
CREATION_DATE  = 
ORIGINATOR     = 

OBJECT_NAME    = STARLINK-36150
OBJECT_ID      = 2025-294B
CENTER_NAME    = EARTH
REF_FRAME      = TEME
TIME_SYSTEM    = UTC
MEAN_ELEMENT_THEORY = SGP/SGP4

EPOCH          = 2025-12-20T12:00:02.000160
MEAN_MOTION    = 15.87849486
ECCENTRICITY   = .0001521
INCLINATION    = 42.9998
RA_OF_ASC_NODE = 134.7488
ARG_OF_PERICENTER = 268.5197
MEAN_ANOMALY   = 309.0780

EPHEMERIS_TYPE = 0
CLASSIFICATION_TYPE = U
NORAD_CAT_ID   = 67031
ELEMENT_SET_NO = 999
REV_AT_EPOCH   = 155
BSTAR          = -.55087E-2
MEAN_MOTION_DOT = -.1350261E-1
MEAN_MOTION_DDOT = 0

CCSDS_OMM_VERS = 2.0
CREATION_DATE  = 
ORIGINATOR     = 

OBJECT_NAME    = STARLINK-36131
OBJECT_ID      = 2025-294C
CENTER_NAME    = EARTH
REF_FRAME      = TEME
TIME_SYSTEM    = UTC
MEAN_ELEMENT_THEORY = SGP/SGP4

EPOCH          = 2025-12-20T12:00:02.000160
MEAN_MOTION    = 15.87919298
ECCENTRICITY   = .0001479
INCLINATION    = 42.9998
RA_OF_ASC_NODE = 134.7387
ARG_OF_PERICENTER = 261.3303
MEAN_ANOMALY   = 320.2764

EPHEMERIS_TYPE = 0
CLASSIFICATION_TYPE = U
NORAD_CAT_ID   = 67032
ELEMENT_SET_NO = 999
REV_AT_EPOCH   = 136
BSTAR          = -.5528E-2
MEAN_MOTION_DOT = -.1358554E-1
MEAN_MOTION_DDOT = 0

CCSDS_OMM_VERS = 2.0
CREATION_DATE  = 
ORIGINATOR     = 

OBJECT_NAME    = STARLINK-36137
OBJECT_ID      = 2025-294D
CENTER_NAME    = EARTH
REF_FRAME      = TEME
TIME_SYSTEM    = UTC
MEAN_ELEMENT_THEORY = SGP/SGP4

EPOCH          = 2025-12-20T12:00:02.000160
MEAN_MOTION    = 15.87884763
ECCENTRICITY   = .0001514
INCLINATION    = 42.9997
RA_OF_ASC_NODE = 134.7441
ARG_OF_PERICENTER = 264.7149
MEAN_ANOMALY   = 314.8644

EPHEMERIS_TYPE = 0
CLASSIFICATION_TYPE = U
NORAD_CAT_ID   = 67033
ELEMENT_SET_NO = 999
REV_AT_EPOCH   = 136
BSTAR          = -.55128E-2
MEAN_MOTION_DOT = -.1353234E-1
MEAN_MOTION_DDOT = 0

CCSDS_OMM_VERS = 2.0
CREATION_DATE  = 
ORIGINATOR     = 

OBJECT_NAME    = STARLINK-36140
OBJECT_ID      = 2025-294E
CENTER_NAME    = EARTH
REF_FRAME      = TEME
TIME_SYSTEM    = UTC
MEAN_ELEMENT_THEORY = SGP/SGP4

EPOCH          = 2025-12-20T06:00:02.999808
MEAN_MOTION    = 15.88668928
ECCENTRICITY   = .00016534
INCLINATION    = 42.9997
RA_OF_ASC_NODE = 136.2775
ARG_OF_PERICENTER = 258.8744
MEAN_ANOMALY   = 333.7865

EPHEMERIS_TYPE = 0
CLASSIFICATION_TYPE = U
NORAD_CAT_ID   = 67034
ELEMENT_SET_NO = 999
REV_AT_EPOCH   = 132
BSTAR          = -.52207572E-2
MEAN_MOTION_DOT = -.1335981E-1
MEAN_MOTION_DDOT = 0

CCSDS_OMM_VERS = 2.0
CREATION_DATE  = 
ORIGINATOR     = 

OBJECT_NAME    = STARLINK-36085
OBJECT_ID      = 2025-294F
CENTER_NAME    = EARTH
REF_FRAME      = TEME
TIME_SYSTEM    = UTC
MEAN_ELEMENT_THEORY = SGP/SGP4

EPOCH          = 2025-12-20T12:00:02.000160
MEAN_MOTION    = 15.88016699
ECCENTRICITY   = .0001498
INCLINATION    = 43.0000
RA_OF_ASC_NODE = 134.7218
ARG_OF_PERICENTER = 263.5265
MEAN_ANOMALY   = 324.7838

EPHEMERIS_TYPE = 0
CLASSIFICATION_TYPE = U
NORAD_CAT_ID   = 67035
ELEMENT_SET_NO = 999
REV_AT_EPOCH   = 136
BSTAR          = -.56203E-2
MEAN_MOTION_DOT = -.1384309E-1
MEAN_MOTION_DDOT = 0

