STARLINK-36192          
1 67024U 25293X   25354.25003472 -.01300994  49613-3 -37315-2 0  9997
2 67024  69.9936 301.9281 0003920 272.2172 344.5697 15.92990323  1433
STARLINK-36178          
1 67025U 25293Y   25354.50002315 -.01419241  57927-3 -41945-2 0  9998
2 67025  69.9929 301.1979 0003899 269.3824 342.5617 15.92431662  1478
STARLINK-36176          
1 67026U 25293Z   25354.50002315 -.01428360  58664-3 -42036-2 0  9992
2 67026  69.9926 301.1919 0003897 270.9863 346.0060 15.92514702  1477
STARLINK-36171          
1 67027U 25293AA  25354.50002315 -.01432667  58969-3 -42249-2 0  9992
2 67027  69.9925 301.1947 0003847 270.0786 344.7841 15.92476213  1474
STARLINK-36132          
1 67028U 25293AB  25354.50002315 -.01439634  59574-3 -42179-2 0  9999
2 67028  69.9931 301.1859 0003985 270.2122 351.8793 15.92601818  1479
STARLINK-36190          
1 67029U 25293AC  25354.50002315 -.01441330  59677-3 -42330-2 0  9999
2 67029  69.9930 301.1895 0003867 268.7981 350.4634 15.92556927  1472
STARLINK-36138          
1 67030U 25294A   25354.50002315 -.01346401  00000+0 -55017-2 0  9993
2 67030  42.9996 134.7531 0001413 266.5464 309.4701 15.87811313  1365
STARLINK-36150          
1 67031U 25294B   25354.50002315 -.01350261  00000+0 -55087-2 0  9990
2 67031  42.9998 134.7488 0001521 268.5197 309.0780 15.87849486  1550
STARLINK-36131          
1 67032U 25294C   25354.50002315 -.01358554  00000+0 -55280-2 0  9999
2 67032  42.9998 134.7387 0001479 261.3303 320.2764 15.87919298  1366
STARLINK-36137          
1 67033U 25294D   25354.50002315 -.01353234  00000+0 -55128-2 0  9991
2 67033  42.9997 134.7441 0001514 264.7149 314.8644 15.87884763  1366
STARLINK-36140          
1 67034U 25294E   25354.25003472 -.01335981  00000+0 -52208-2 0  9994
2 67034  42.9997 136.2775 0001653 258.8744 333.7865 15.88668928  1328
STARLINK-36085          
1 67035U 25294F   25354.50002315 -.01384309  00000+0 -56203-2 0  9995
2 67035  43.0000 134.7218 0001498 263.5265 324.7838 15.88016699  1365
